country_code|country_name|domestic_example|bban_example|bban_format_swift|bban_format_regex|bban_length|iban_example|iban_format_swift|iban_format_regex|iban_length|bban_bankid_start_offset|bban_bankid_stop_offset|bban_branchid_start_offset|bban_branchid_stop_offset|registry_edition|country_sepa|swift_official|bban_checksum_start_offset|bban_checksum_stop_offset|country_code_iana|country_code_iso3166_1_alpha2|parent_registrar|currency_iso4217|central_bank_url|central_bank_name
AL|Albania|0000000235698741|212110090000000235698741|8!n16!c|^(\d{8})([A-Za-z0-9]{16})$|24|AL47212110090000000235698741|AL2!n8!n16!c|^AL(\d{2})(\d{8})([A-Za-z0-9]{16})$|28|0|2|3|6|2011-06-20|0|1|7|7|al|AL||ALL|www.bankofalbania.org|Bank of Albania
DZ|Algeria|12341234123412341234|12341234123412341234|20!n|^[0-9]{20}$|20|DZ3512341234123412341234|DZ2!n20!n|^DZ(\d{2})(\d{20})$|24|||||2016-01-22|0|0|||dz|DZ||DZD|www.bank-of-algeria.dz|Bank of Algeria
AD|Andorra|2030200359100100|00012030200359100100|4!n4!n12!c|^(\d{4})(\d{4})([A-Za-z0-9]{12})$|20|AD1200012030200359100100|AD2!n4!n4!n12!c|^AD(\d{2})(\d{4})(\d{4})([A-Za-z0-9]{12})$|24|0|3|4|7|2011-06-20|1|1|||ad|AD||EUR|www.inaf.ad|Institut Nacional Andorrà de Finances
AO|Angola|123412341234123412341|123412341234123412341|21!n|^[0-9]{21}$|21|AO44123412341234123412341|AO2!n21!n|^AO(\d{2})(\d{21})$|25|||||2016-01-22|0|0|||ao|AO||AOA|www.bna.ao|National Bank of Angola
AT|Austria|19043-234573201|1904300234573201|5!n11!n|^(\d{5})(\d{11})$|16|AT611904300234573201|AT2!n5!n11!n|^AT(\d{2})(\d{5})(\d{11})$|20|0|4|||2011-06-20|1|1|||at|AT||EUR|www.oenb.at|Austrian National Bank
AZ|Azerbaijan|NABZ00000000137010001944|NABZ00000000137010001944|4!a20!c|^([A-Z]{4})([A-Za-z0-9]{20})$|24|AZ21NABZ00000000137010001944|AZ2!n4!a20!c|^AZ(\d{2})([A-Z]{4})([A-Za-z0-9]{20})$|28|0|3|||2012-05-29|0|1|||az|AZ||AZN|www.cbar.az|The Central Bank of the Republic of Azerbaijan
BH|Bahrain|00001299123456|BMAG00001299123456|4!a14!c|^([A-Z]{4})([A-Za-z0-9]{14})$|22|BH67BMAG00001299123456|BH2!n4!a14!c|^BH(\d{2})([A-Z]{4})([A-Za-z0-9]{14})$|22|0|3|||2012-05-29|0|1|||bh|BH||BHD|www.cbb.gov.bh|Central Bank of Bahrain
BE|Belgium|539-0075470-34|539007547034|3!n7!n2!n|^(\d{3})(\d{7})(\d{2})$|12|BE68539007547034|BE2!n3!n7!n2!n|^BE(\d{2})(\d{3})(\d{7})(\d{2})$|16|0|2|||2011-06-20|1|1|10|11|be|BE||EUR|www.nbb.be|National Bank of Belgium
BJ|Benin|A12312341234123412341234|A12312341234123412341234|1!a23!n|^[A-Z]{1}[0-9]{23}$|24|BJ83A12312341234123412341234|BJ2!n1!a23!n|^BJ(\d{2})([A-Z]{1}[0-9]{23})$|28|||||2016-01-22|0|0|||bj|BJ||XOF|www.bceao.int|Central Bank of West African States (BCEAO)
BA|Bosnia and Herzegovina|199-044-00012002-79|1990440001200279|3!n3!n8!n2!n|^(\d{3})(\d{3})(\d{8})(\d{2})$|16|BA391290079401028494|BA2!n3!n3!n8!n2!n|^BA(\d{2})(\d{3})(\d{3})(\d{8})(\d{2})$|20|0|2|3|5|2011-06-20|0|1|14|15|ba|BA||BAM|www.cbbh.ba|Central Bank of Bosnia and Herzegovina
BR|Brazil|0009795493C1|00360305000010009795493P1|8!n5!n10!n1!a1!c|^(\d{8})(\d{5})(\d{10})([A-Z]{1})([A-Za-z0-9]{1})$|25|BR9700360305000010009795493P1|BR2!n8!n5!n10!n1!a1!c|^BR(\d{2})(\d{8})(\d{5})(\d{10})([A-Z]{1})([A-Za-z0-9]{1})$|29|0|7|8|12|2013-06-20|0|1|||br|BR||BRL|www.bcb.gov.br|Central Bank of Brazil
VG|British Virgin Islands|00000 12 345 678 901|VPVG0000012345678901|4!a16!n|^([A-Z]{4})(\d{16})$|20|VG96VPVG0000012345678901|VG2!n4!a16!n|^VG(\d{2})([A-Z]{4})(\d{16})$|24|0|3|||2012-05-29|0|1|||vg|VG||USD|www.bvifsc.vg|The British Virgin Islands Financial Services Commission
BG|Bulgaria|BNBG 9661 1020 3456 78|BNBG96611020345678|4!a4!n2!n8!c|^([A-Z]{4})(\d{4})(\d{2})([A-Za-z0-9]{8})$|18|BG80BNBG96611020345678|BG2!n4!a4!n2!n8!c|^BG(\d{2})([A-Z]{4})(\d{4})(\d{2})([A-Za-z0-9]{8})$|22|0|3|4|7|2011-06-20|1|1|||bg|BG||BGN|www.bnb.bg|Bulgarian National Bank
BF|Burkina Faso|12341234123412341234123|12341234123412341234123|23!n|^[0-9]{23}$|23|BF4512341234123412341234123|BF2!n23!n|^BF(\d{2})(\d{23})$|27|||||2016-01-22|0|0|||bf|BF||XOF|www.bceao.int|Central Bank of West African States (BCEAO)
BI|Burundi|123412341234|123412341234|12!n|^[0-9]{12}$|12|BI33123412341234|BI2!n12!n|^BI(\d{2})(\d{12})$|16|||||2016-01-22|0|0|||bi|BI||BIF|www.brb.bi|Bank of the Republic of Burundi
CM|Cameroon|12341234123412341234123|12341234123412341234123|23!n|^[0-9]{23}$|23|CM1512341234123412341234123|CM2!n23!n|^CM(\d{2})(\d{23})$|27|||||2016-01-22|0|0|||cm|CM||XAF|www.beac.int|Bank of Central African States
CV|Cape Verde|12341234123412341|12341234123412341|21!n|^[0-9]{21}$|21|CV05123412341234123412341|CV2!n21!n|^CV(\d{2})(\d{21})$|25|||||2016-01-22|0|0|||cv|CV||CVE|www.bcv.cv|Bank of Cape Verde
CR|Costa Rica|02001026284066|015202001026284066|4!n14!n|^(\d{4})(\d{14})$|18|CR05015202001026284066|CR2!n4!n14!n|^CR(\d{2})(\d{4})(\d{14})$|22|0|2|||2012-05-29|0|1|||cr|CR||CRC|www.bccr.fi.cr|Central Bank of Costa Rica
CI|Côte d'Ivoire|A12312341234123412341234|A12312341234123412341234|1!a23!n|^[A-Z]{1}[0-9]{23}$|24|CI77A12312341234123412341234|CI2!n1!a23!n|^CI(\d{2})([A-Z]{1})(\d{23})$|28|||||2016-01-22|0|0|||ci|CI||XOF|www.bceao.int|Central Bank of West African States (BCEAO)
HR|Croatia|1001005-1863000160|10010051863000160|7!n10!n|^(\d{7})(\d{10})$|17|HR1210010051863000160|HR2!n7!n10!n|^HR(\d{2})(\d{7})(\d{10})$|21|0|6|||2011-06-20|0|1|||hr|HR||HRK|www.hnb.hr|Croatian National Bank
CY|Cyprus|1200527600|002001280000001200527600|3!n5!n16!c|^(\d{3})(\d{5})([A-Za-z0-9]{16})$|24|CY17002001280000001200527600|CY2!n3!n5!n16!c|^CY(\d{2})(\d{3})(\d{5})([A-Za-z0-9]{16})$|28|0|2|3|7|2011-06-20|1|1|||cy|CY||EUR|www.centralbank.gov.cy|Central Bank of Cyprus
CZ|Czech Republic|19-2000145399/0800|08000000192000145399|4!n6!n10!n|^(\d{4})(\d{6})(\d{10})$|20|CZ6508000000192000145399|CZ2!n4!n6!n10!n|^CZ(\d{2})(\d{4})(\d{6})(\d{10})$|24|0|3|4|9|2011-06-20|1|1|||cz|CZ||CZK|www.cnb.cz|Czech National Bank
DK|Denmark|0040 0440116243, 6460 0001631634, 6471 0001000206|00400440116243, 64600001631634, 64710001000206|4!n9!n1!n|^(\d{4})(\d{9})(\d{1})$|14|DK5000400440116243|DK2!n4!n9!n1!n|^DK(\d{2})(\d{4})(\d{9})(\d{1})$|18|0|3|||2011-06-20|1|1|||dk|DK||DKK|www.nationalbanken.dk|National Bank of Denmark (Danmarks Nationalbank)
FO|Faroe Islands|0040 0440116243, 6460 0001631634, 6471 0001000206|00400440116243, 64600001631634, 64710001000206|4!n9!n1!n|^(\d{4})(\d{9})(\d{1})$|14|FO2000400440116243|FO2!n4!n9!n1!n|^FO(\d{2})(\d{4})(\d{9})(\d{1})$|18|0|3|||2011-06-20|0|1|13|13|fo|FO|DK|DKK|www.nationalbanken.dk|National Bank of Denmark (Danmarks Nationalbank)
GL|Greenland|0040 0440116243, 6460 0001631634, 6471 0001000206|00400440116243, 64600001631634, 64710001000206|4!n9!n1!n|^(\d{4})(\d{9})(\d{1})$|14|GL2000400440116243|GL2!n4!n9!n1!n|^GL(\d{2})(\d{4})(\d{9})(\d{1})$|18|0|3|||2011-06-20|0|1|||gl|GL|DK|DKK|www.nationalbanken.dk|National Bank of Denmark (Danmarks Nationalbank)
DO|Dominican Republic|1212453611324|AGR00000001212453611324|4!c20!n|^([A-Za-z0-9]{4})(\d{20})$|24|DO28BAGR00000001212453611324|DO2!n4!c20!n|^DO(\d{2})([A-Za-z0-9]{4})(\d{20})$|28|0|3|||2011-06-20|0|1|||do|DO||DOP|www.bancentral.gov.do|Central Bank of the Dominican Republic
EE|Estonia|221020145685|2200221020145685|2!n2!n11!n1!n|^(\d{2})(\d{2})(\d{11})(\d{1})$|16|EE382200221020145685|EE2!n2!n2!n11!n1!n|^EE(\d{2})(\d{2})(\d{2})(\d{11})(\d{1})$|20|0|1|||2011-06-20|1|1|15|15|ee|EE||EUR|www.eestipank.ee|Bank of Estonia
FI|Finland|123456-785|12345600000785|6!n7!n1!n|^(\d{6})(\d{7})(\d{1})$|14|FI2112345600000785|FI2!n6!n7!n1!n|^FI(\d{2})(\d{6})(\d{7})(\d{1})$|18|0|2|||2013-08-05|1|1|13|13|fi|FI||EUR|www.suomenpankki.fi|Bank of Finland
AX|Åland Islands|123456-785|12345600000785|6!n7!n1!n|^(\d{6})(\d{7})(\d{1})$|14|AX2112345600000785|AX2!n6!n7!n1!n|^AX(\d{2})(\d{6})(\d{7})(\d{1})$|18|0|2|||2013-09-05|1|1|||ax|AX|FI|EUR|www.suomenpankki.fi|Bank of Finland
FR|France|20041 01005 0500013M026 06|20041010050500013M02606|5!n5!n11!c2!n|^(\d{5})(\d{5})([A-Za-z0-9]{11})(\d{2})$|23|FR1420041010050500013M02606|FR2!n5!n5!n11!c2!n|^FR(\d{2})(\d{5})(\d{5})([A-Za-z0-9]{11})(\d{2})$|27|0|4|5|9|2013-08-28|1|1|21|22|fr|FR||EUR|www.banque-france.fr|Bank of France (Banque de France)
GF|French Guiana|20041 01005 0500013M026 06|20041010050500013M02606|5!n5!n11!c2!n|^(\d{5})(\d{5})([A-Za-z0-9]{11})(\d{2})$|23|GF4120041010050500013M02606|GF2!n5!n5!n11!c2!n|^GF(\d{2})(\d{5})(\d{5})([A-Za-z0-9]{11})(\d{2})$|27|0|4|5|9|2013-08-28|1|1|21|22|gf|GF|FR|EUR|www.banque-france.fr|Bank of France (Banque de France)
PF|French Polynesia|20041 01005 0500013M026 06|20041010050500013M02606|5!n5!n11!c2!n|^(\d{5})(\d{5})([A-Za-z0-9]{11})(\d{2})$|23|PF5720041010050500013M02606|PF2!n5!n5!n11!c2!n|^PF(\d{2})(\d{5})(\d{5})([A-Za-z0-9]{11})(\d{2})$|27|0|4|5|9|2011-06-20|0|1|21|22|pf|PF|FR|XPF|www.ieom.fr|Overseas Issuing Institute (Institut d'émission d'Outre-Mer)
TF|French Southern Territories|20041 01005 0500013M026 06|20041010050500013M02606|5!n5!n11!c2!n|^(\d{5})(\d{5})([A-Za-z0-9]{11})(\d{2})$|23|TF2120041010050500013M02606|TF2!n5!n5!n11!c2!n|^TF(\d{2})(\d{5})(\d{5})([A-Za-z0-9]{11})(\d{2})$|27|0|4|5|9|2011-06-20|0|1|21|22|tf|TF|FR|EUR|www.banque-france.fr|Bank of France (Banque de France)
GP|Guadelope|20041 01005 0500013M026 06|20041010050500013M02606|5!n5!n11!c2!n|^(\d{5})(\d{5})([A-Za-z0-9]{11})(\d{2})$|23|GP1120041010050500013M02606|GP2!n5!n5!n11!c2!n|^GP(\d{2})(\d{5})(\d{5})([A-Za-z0-9]{11})(\d{2})$|27|0|4|5|9|2013-08-28|1|1|21|22|gp|GP|FR|EUR|www.banque-france.fr|Bank of France (Banque de France)
MQ|Martinique|20041 01005 0500013M026 06|20041010050500013M02606|5!n5!n11!c2!n|^(\d{5})(\d{5})([A-Za-z0-9]{11})(\d{2})$|23|MQ5120041010050500013M02606|MQ2!n5!n5!n11!c2!n|^MQ(\d{2})(\d{5})(\d{5})([A-Za-z0-9]{11})(\d{2})$|27|0|4|5|9|2013-08-28|1|1|21|22|mq|MQ|FR|EUR|www.banque-france.fr|Bank of France (Banque de France)
YT|Mayotte|20041 01005 0500013M026 06|20041010050500013M02606|5!n5!n11!c2!n|^(\d{5})(\d{5})([A-Za-z0-9]{11})(\d{2})$|23|YT3120041010050500013M02606|YT2!n5!n5!n11!c2!n|^YT(\d{2})(\d{5})(\d{5})([A-Za-z0-9]{11})(\d{2})$|27|0|4|5|9|2013-08-28|1|1|21|22|yt|YT|FR|EUR|www.banque-france.fr|Bank of France (Banque de France)
NC|New Caledonia|20041 01005 0500013M026 06|20041010050500013M02606|5!n5!n11!c2!n|^(\d{5})(\d{5})([A-Za-z0-9]{11})(\d{2})$|23|NC8420041010050500013M02606|NC2!n5!n5!n11!c2!n|^NC(\d{2})(\d{5})(\d{5})([A-Za-z0-9]{11})(\d{2})$|27|0|4|5|9|2011-06-20|0|1|21|22|nc|NC|FR|XPF|www.ieom.fr|Overseas Issuing Institute (Institut d'émission d'Outre-Mer)
RE|Réunion|20041 01005 0500013M026 06|20041010050500013M02606|5!n5!n11!c2!n|^(\d{5})(\d{5})([A-Za-z0-9]{11})(\d{2})$|23|RE4220041010050500013M02606|RE2!n5!n5!n11!c2!n|^RE(\d{2})(\d{5})(\d{5})([A-Za-z0-9]{11})(\d{2})$|27|0|4|5|9|2013-08-28|1|1|21|22|re|RE|FR|EUR|www.banque-france.fr|Bank of France (Banque de France)
BL|Saint Barthélemy|20041 01005 0500013M026 06|20041010050500013M02606|5!n5!n11!c2!n|^(\d{5})(\d{5})([A-Za-z0-9]{11})(\d{2})$|23|BL6820041010050500013M02606|BL2!n5!n5!n11!c2!n|^BL(\d{2})(\d{5})(\d{5})([A-Za-z0-9]{11})(\d{2})$|27|0|4|5|9|2013-02-08|0|1|21|22||BL|FR|EUR|www.banque-france.fr|Bank of France (Banque de France)
MF|Saint Martin (French Part)|20041 01005 0500013M026 06|20041010050500013M02606|5!n5!n11!c2!n|^(\d{5})(\d{5})([A-Za-z0-9]{11})(\d{2})$|23|MF8420041010050500013M02606|MF2!n5!n5!n11!c2!n|^MF(\d{2})(\d{5})(\d{5})([A-Za-z0-9]{11})(\d{2})$|27|0|4|5|9|2013-02-08|0|1|21|22||MF|FR|EUR|www.banque-france.fr|Bank of France (Banque de France)
PM|Saint-Pierre and Miquelon|20041 01005 0500013M026 06|20041010050500013M02606|5!n5!n11!c2!n|^(\d{5})(\d{5})([A-Za-z0-9]{11})(\d{2})$|23|PM3620041010050500013M02606|PM2!n5!n5!n11!c2!n|^PM(\d{2})(\d{5})(\d{5})([A-Za-z0-9]{11})(\d{2})$|27|0|4|5|9|2013-08-28|1|1|21|22|pm|PM|FR|EUR|www.banque-france.fr|Bank of France (Banque de France)
WF|Wallis and Futuna|20041 01005 0500013M026 06|20041010050500013M02606|5!n5!n11!c2!n|^(\d{5})(\d{5})([A-Za-z0-9]{11})(\d{2})$|23|WF9120041010050500013M02606|WF2!n5!n5!n11!c2!n|^WF(\d{2})(\d{5})(\d{5})([A-Za-z0-9]{11})(\d{2})$|27|0|4|5|9|2011-06-20|0|1|21|22|wf|WF|FR|XPF|www.ieom.fr|Overseas Issuing Institute (Institut d'émission d'Outre-Mer)
GE|Georgia|0000000101904917|NB0000000101904917|2!a16!n|^([A-Z]{2})(\d{16})$|18|GE29NB0000000101904917|GE2!n2!a16!n|^GE(\d{2})([A-Z]{2})(\d{16})$|22|0|1|||2011-06-20|0|1|||ge|GE||GEL|www.nbg.gov.ge|National Bank of Georgia
DE|Germany|37040044-532013000|370400440532013000|8!n10!n|^(\d{8})(\d{10})$|18|DE89370400440532013000|DE2!n8!n10!n|^DE(\d{2})(\d{8})(\d{10})$|22|0|7|||2011-06-20|1|1|||de|DE||EUR|www.bundesbank.de|Deutsche Bundesbank
GI|Gibraltar|0000 00007099 453|NWBK000000007099453|4!a15!c|^([A-Z]{4})([A-Za-z0-9]{15})$|19|GI75NWBK000000007099453|GI2!n4!a15!c|^GI(\d{2})([A-Z]{4})([A-Za-z0-9]{15})$|23|0|3|||2011-06-20|1|1|||gi|GI||GIP|www.gibraltar.gov.gi|Government of Gibraltar
GR|Greece|01250000000012300695|01101250000000012300695|3!n4!n16!c|^(\d{3})(\d{4})([A-Za-z0-9]{16})$|23|GR1601101250000000012300695|GR2!n3!n4!n16!c|^GR(\d{2})(\d{3})(\d{4})([A-Za-z0-9]{16})$|27|0|2|3|6|2011-06-20|1|1|||gr|GR||EUR|www.bankofgreece.gr|Bank of Greece
GT|Guatemala|01020000001210029690|TRAJ01020000001210029690|4!c20!c|^([A-Za-z0-9]{4})([A-Za-z0-9]{20})$|24|GT82TRAJ01020000001210029690|GT2!n4!c20!c|^GT(\d{2})([A-Za-z0-9]{4})([A-Za-z0-9]{20})$|28|0|3|||2012-05-29|0|1|||gt|GT||GTQ|www.banguat.gob.gt|Bank of Guatemala
HU|Hungary|11773016-11111018-00000000|117730161111101800000000|3!n4!n1!n15!n1!n|^(\d{3})(\d{4})(\d{1})(\d{15})(\d{1})$|24|HU42117730161111101800000000|HU2!n3!n4!n1!n15!n1!n|^HU(\d{2})(\d{3})(\d{4})(\d{1})(\d{15})(\d{1})$|28|0|2|3|6|2011-06-20|1|1|23|23|hu|HU||HUF|english.mnb.hu|Magyar Nemzeti Bank (Central Bank of Hungary)
IS|Iceland|0159-26-007654-551073-0339|0159260076545510730339|4!n2!n6!n10!n|^(\d{4})(\d{2})(\d{6})(\d{10})$|22|IS140159260076545510730339|IS2!n4!n2!n6!n10!n|^IS(\d{2})(\d{4})(\d{2})(\d{6})(\d{10})$|26|0|3|6|11|2011-06-20|1|1|||is|IS||ISK|www.sedlabanki.is|Central Bank of Iceland
AA|IIBAN (Internet)|0011123Z5678|0011123Z5678|12!a|^[A-Z0-9]{12}$|12|AA110011123Z5678|AA2!n12!a|^AA(\d{2})([A-Z0-9]{12})$|16|0|3||||0|0||||||||
IR|Iran|1234123412341234123412|123412341234123412|22!n|^[0-9]{22}$|22|IR081234123412341234123412|IR2!n22!n|^IR(\d{2})(\d{22})$|26|||||2016-01-22|0|0|||ir|IR||IRR|www.cbi.ir|The Central Bank of the Islamic Republic of Iran
IE|Ireland|93-11-52 12345678|AIBK93115212345678|4!a6!n8!n|^([A-Z]{4})(\d{6})(\d{8})$|18|IE29AIBK93115212345678|IE2!n4!a6!n8!n|^IE(\d{2})([A-Z]{4})(\d{6})(\d{8})$|22|0|3|4|9|2011-06-20|1|1|||ie|IE||EUR|www.centralbank.ie|Central Bank and Financial Services Authority of Ireland
IL|Israel|10-800-99999999|010800000099999999|3!n3!n13!n|^(\d{3})(\d{3})(\d{13})$|19|IL620108000000099999999|IL2!n3!n3!n13!n|^IL(\d{2})(\d{3})(\d{3})(\d{13})$|23|0|2|3|5|2011-06-20|0|1|||il|IL||ILS|www.bankisrael.org.il|Bank of Israel
IT|Italy|X 05428 11101 000000123456|X0542811101000000123456|1!a5!n5!n12!c|^([A-Z]{1})(\d{5})(\d{5})([A-Za-z0-9]{12})$|23|IT60X0542811101000000123456|IT2!n1!a5!n5!n12!c|^IT(\d{2})([A-Z]{1})(\d{5})(\d{5})([A-Za-z0-9]{12})$|27|1|5|6|10|2011-06-20|1|1|0|0|it|IT||EUR|www.bancaditalia.it|Bank of Italy
JO|Jordan|1310000302|CBJO0010000000000131000302|4!a4!n18!c|^([A-Z]{4})(\d{4})([A-Za-z0-9]{18})$|26|JO94CBJO0010000000000131000302|JO2!n4!a4!n18!c|^JO(\d{2})([A-Z]{4})(\d{4})([A-Za-z0-9]{18})$|30|0|3|4|7|2014-06-05|0|1|||jo|JO||JOD|www.cbj.gov.jo|Central Bank of Jordan
KZ|Kazakhstan|KZ86125KZT5004100100|125KZT5004100100|3!n13!c|^(\d{3})([A-Za-z0-9]{13})$|16|KZ86125KZT5004100100|KZ2!n3!n13!c|^KZ(\d{2})(\d{3})([A-Za-z0-9]{13})$|20|0|2|||2014-06-05|0|1|||kz|KZ||KZT|www.nationalbank.kz|National Bank of Kazakhstan
XK|Kosovo|1212 0123456789 06|1212012345678906|4!n10!n2!n|^(\d{4})(\d{10})(\d{2})$|16|XK051212012345678906|XK2!n4!n10!n2!n|^XK(\d{2})(\d{4})(\d{10})(\d{2})$|20|0|1|2|3|2016-01-21|0|1||||||EUR|www.bqk-kos.org|Central Bank of the Republic of Kosovo (Banka Qendrore e Kosovës)
KW|Kuwait|CBKU0000000000001234560101|CBKU0000000000001234560101|4!a22!c|^([A-Z]{4})([A-Za-z0-9]{22})$|26|KW81CBKU0000000000001234560101|KW2!n4!a22!c|^KW(\d{2})([A-Z]{4})([A-Za-z0-9]{22})$|30|0|3|||2016-01-21|0|1|||kw|KW||KWD|www.cbk.gov.kw|Central Bank of Kuwait
LV|Latvia|BANK 0000 4351 9500 1|BANK0000435195001|4!a13!c|^([A-Z]{4})([A-Za-z0-9]{13})$|17|LV80BANK0000435195001|LV2!n4!a13!c|^LV(\d{2})([A-Z]{4})([A-Za-z0-9]{13})$|21|0|3|||2011-06-20|1|1|||lv|LV||EUR|www.bank.lv/lat/main/all|Bank of Latvia
LB|Lebanon|01 001 901229114|0999 0000 0001 0019 0122 9114|4!n20!c|^(\d{4})([A-Za-z0-9]{20})$|24|LB62099900000001001901229114|LB2!n4!n20!c|^LB(\d{2})(\d{4})([A-Za-z0-9]{20})$|28|0|3|||2011-06-20|0|1|||lb|LB||LBP|www.bdl.gov.lb|Central Bank of Lebanon
LI|Liechtenstein|8810 2324013AA|088100002324013AA|5!n12!c|^(\d{5})([A-Za-z0-9]{12})$|19|LI21088100002324013AA|LI2!n5!n12!c|^LI(\d{2})(\d{5})([A-Za-z0-9]{12})$|21|0|4|||2012-05-29|1|1|||li|LI||CHF|www.llb.li|National Bank of Liechtenstein (Liechtensteinische Landesbank)
LT|Lithuania|1000 0111 0100 1000|10000011101001000|5!n11!n|^(\d{5})(\d{11})$|16|LT121000011101001000|LT2!n5!n11!n|^LT(\d{2})(\d{5})(\d{11})$|20|0|4|||2011-06-20|1|1|||lt|LT||EUR|www.lb.lt|Bank of Lithuania
LU|Luxembourg|0019 4006 4475 0000|0019400644750000|3!n13!c|^(\d{3})([A-Za-z0-9]{13})$|16|LU280019400644750000|LU2!n3!n13!c|^LU(\d{2})(\d{3})([A-Za-z0-9]{13})$|20|0|2|||2011-06-20|1|1|14|15|lu|LU||EUR|www.bcl.lu|Central Bank of Luxembourg
MK|Macedonia|300 0000000424 25|250120000058984|3!n10!c2!n|^(\d{3})([A-Za-z0-9]{10})(\d{2})$|15|MK07250120000058984|MK2!n3!n10!c2!n|^MK(\d{2})(\d{3})([A-Za-z0-9]{10})(\d{2})$|19|0|2|||2012-05-29|0|1|13|14|mk|MK||MKD|www.nbrm.mk|National Bank of the Republic of Macedonia
MG|Madagascar|12341234123412341234123|12341234123412341234123|23!n|^[0-9]{23}$|23|MG4012341234123412341234123|MG2!n23!n|^MG(\d{2})(\d{23})$|27|||||2016-01-22|0|0|||mg|MG||MGA|www.banque-centrale.mg|Central Bank of Madagascar
ML|Mali|A12312341234123412341234|A12312341234123412341234|1!a23!n|^[A-Z]{1}[0-9]{23}$|24|ML75A12312341234123412341234|ML2!n1!a23!n|^ML(\d{2})([A-Z]{1})(\d{23})$|28|||||2016-01-22|0|0|||ml|ML||XOF|www.bceao.int|Central Bank of West African States (BCEAO)
MT|Malta|12345MTLCAST001S|MALT011000012345MTLCAST001S|4!a5!n18!c|^([A-Z]{4})(\d{5})([A-Za-z0-9]{18})$|27|MT84MALT011000012345MTLCAST001S|MT2!n4!a5!n18!c|^MT(\d{2})([A-Z]{4})(\d{5})([A-Za-z0-9]{18})$|31|0|3|4|8|2011-06-20|1|1|||mt|MT||EUR|www.centralbankmalta.org|Central Bank of Malta
MR|Mauritania|00020 00101 00001234567 53|00020001010000123456753|5!n5!n11!n2!n|^(\d{5})(\d{5})(\d{11})(\d{2})$|23|MR1300020001010000123456753|MR2!n5!n5!n11!n2!n|^MR(\d{2})(\d{5})(\d{5})(\d{11})(\d{2})$|27|0|4|5|9|2016-06-11|0|1|21|22|mr|MR||MRO|www.bcm.mr|Central Bank of Mauritania
MU|Mauritius|BOMM 0101 1010 3030 0200 000M UR|BOMM0101101030300200000MUR|4!a2!n2!n12!n3!n3!a|^([A-Z]{4})(\d{2})(\d{2})(\d{12})(\d{3})([A-Z]{3})$|26|MU17BOMM0101101030300200000MUR|MU2!n4!a2!n2!n12!n3!n3!a|^MU(\d{2})([A-Z]{4})(\d{2})(\d{2})(\d{12})(\d{3})([A-Z]{3})$|30|0|5|6|7|2011-06-20|0|1|||mu|MU||MUR|www.bom.mu|Bank of Mauritius
MD|Moldova|00225100013104168|AG000225100013104168|2!c18!c|^([A-Za-z0-9]{2})([A-Za-z0-9]{18})$|20|MD24AG000225100013104168|MD2!n2!c18!c|^MD(\d{2})([A-Za-z0-9]{20})$|24|0|1|||2012-09-09|0|1|||md|MD||MDL|www.bnm.org|National Bank of Moldova
MC|Monaco|0011111000h|11222 00001 01234567890 30|5!n5!n11!c2!n|^(\d{5})(\d{5})([A-Za-z0-9]{11})(\d{2})$|23|MC5811222000010123456789030|MC2!n5!n5!n11!c2!n|^MC(\d{2})(\d{5})(\d{5})([A-Za-z0-9]{11})(\d{2})$|27|0|4|5|9|2011-06-20|1|1|21|22|mc|MC||EUR||
ME|Montenegro|505 0000123456789 51|505000012345678951|3!n13!n2!n|^(\d{3})(\d{13})(\d{2})$|18|ME25505000012345678951|ME2!n3!n13!n2!n|^ME(\d{2})(\d{3})(\d{13})(\d{2})$|22|0|2|||2011-06-20|0|1|16|17|me|ME||EUR|www.cb-mn.org|Central Bank of Montenegro
MZ|Mozambique|12341234123412341|12341234123412341|21!n|^[0-9]{21}$|21|MZ97123412341234123412341|MZ2!n21!n|^MZ(\d{2})(\d{21})$|25|||||2016-01-22|0|0|||mz|MZ||MZN|www.bancomoc.mz|Bank of Mozambique
NL|Netherlands|041 71 64 300|ABNA0417164300|4!a10!n|^([A-Z]{4})(\d{10})$|14|NL91ABNA0417164300|NL2!n4!a10!n|^NL(\d{2})([A-Z]{4})(\d{10})$|18|0|3|4|3|2013-06-20|1|1|||nl|NL||EUR|www.dnb.nl|Netherlands Bank
NO|Norway|8601 11 17947|86011117947|4!n6!n1!n|^(\d{4})(\d{6})(\d{1})$|11|NO9386011117947|NO2!n4!n6!n1!n|^NO(\d{2})(\d{4})(\d{6})(\d{1})$|15|0|3|||2011-06-20|1|1|10|10|no|NO||NOK|www.norges-bank.no|Central Bank of Norway (Norges Bank)
PK|Pakistan|00260101036360|SCBL0000001123456702|4!a16!c|^([A-Z]{4})([A-Za-z0-9]{16})$|20|PK36SCBL0000001123456702|PK2!n4!a16!c|^PK(\d{2})([A-Z]{4})([A-Za-z0-9]{16})$|24|0|3|||2012-05-29|0|1|||pk|PK||PKR|www.sbp.org.pk|State Bank of Pakistan
PS|Palestine|400123456702|PALS000000000400123456702|4!a21!c|^([A-Z]{4})([A-Za-z0-9]{21})$|25|PS92PALS000000000400123456702|PS2!n4!a21!c|^PS(\d{2})([A-Z]{4})([A-Za-z0-9]{21})$|29|0|3|||2013-09-05|0|1|||ps|PS||ILS|www.pma.ps|Palestine Monetary Authority
PL|Poland|61 1090 1014 0000 0712 1981 2874|109010140000071219812874|8!n16!n|^(\d{8})(\d{16})$|24|PL61109010140000071219812874|PL2!n8!n16n|^PL(\d{2})(\d{8})(\d{1,16})$|28|0|7|||2011-06-20|1|1|7|7|pl|PL||PLN|www.nbp.pl|National Bank of Poland
PT|Portugal|0002.0123.12345678901.54|000201231234567890154|4!n4!n11!n2!n|^(\d{4})(\d{4})(\d{11})(\d{2})$|21|PT50000201231234567890154|PT2!n4!n4!n11!n2!n|^PT(\d{2})(\d{4})(\d{4})(\d{11})(\d{2})$|25|0|3|4|7|2013-09-05|1|1|19|20|pt|PT||EUR|www.bportugal.pt|Bank of Portugal
QA|Qatar|QA58DOHB00001234567890ABCDEFG|DOHB00001234567890ABCDEFG|4!a4!n17!c|^([A-Z]{4})(\d{4})([A-Za-z0-9]{17})$|29|QA58DOHB00001234567890ABCDEFG|QA2!n4!a4!n17!c|^QA(\d{2})([A-Z]{4})(\d{4})([A-Za-z0-9]{17})$|29|0|3|4|7|2014-06-05|0|1|||qa|QA||QAR|www.qcb.gov.qa|Qatar Central Bank
RO|Romania|AAAA 1B31 0075 9384 0000|AAAA1B31007593840000|4!a16!c|^([A-Z]{4})([A-Za-z0-9]{16})$|20|RO49AAAA1B31007593840000|RO2!n4!a16!c|^RO(\d{2})([A-Z]{4})([A-Za-z0-9]{16})$|24|0|3|||2011-06-20|1|1|||ro|RO||RON|www.bnro.ro|National Bank of Romania
LC|Saint Lucia|0001 0001 0012 0012 0002 3015|HEMM000100010012001200023015|4!a24!c|^([A-Z]{4})([A-Za-z0-9]{24})$|28|LC55HEMM000100010012001200023015|LC2!n4!a24!c|^LC(\d{2})([A-Z]{4})([A-Za-z0-9]{24})$|32|0|3|||2016-04-15|0|1|||lc|LC||XCD|www.eccb-centralbank.org|Eastern Caribbean Central Bank
SM|San Marino|U032 2509 8000 0000 0270 100|U0322509800000000270100|1!a5!n5!n12!c|^([A-Z]{1})(\d{5})(\d{5})([A-Za-z0-9]{12})$|23|SM86U0322509800000000270100|SM2!n1!a5!n5!n12!c|^SM(\d{2})([A-Z]{1})(\d{5})(\d{5})([A-Za-z0-9]{12})$|27|1|5|6|10|2011-06-20|1|1|0|0|sm|SM||EUR|www.bcsm.sm|Central Bank of the Republic of San Marino
ST|São Tomé and Príncipe|518453101|0001000100518453101|8!n11!n2!n|^(\d{8})(\d{11})(\d{2})$|21|ST68000100010051845310112|ST2!n8!n11!n2!n|^ST(\d{2})(\d{8})(\d{11})(\d{2})$|25|0|3|4|7|2016-01-21|0|1|||st|ST||STD|www.bcstp.st|Central Bank of São Tomé and Príncipe
SA|Saudi Arabia|608010167519|80000000608010167519|2!n18!c|^(\d{2})([A-Za-z0-9]{18})$|20|SA0380000000608010167519|SA2!n2!n18!c|^SA(\d{2})(\d{2})([A-Za-z0-9]{18})$|24|0|1|||2012-05-29|0|1|||sa|SA||SAR|www.sama.gov.sa|Saudi Arabian Monetary Agency
SN|Senegal|A12312341234123412341234|A12312341234123412341234|1!a23!n|^[A-Z]{1}[0-9]{23}$|24|SN15A12312341234123412341234|SN2!n1!a23!n|^SN(\d{2})([A-Z]{1})(\d{23})$|28|||||2016-01-22|0|0|||sn|SN||XOF|www.bceao.int|Central Bank of West African States (BCEAO)
RS|Serbia|260-0056010016113-79|260005601001611379|3!n13!n2!n|^(\d{3})(\d{13})(\d{2})$|18|RS35260005601001611379|RS2!n3!n13!n2!n|^RS(\d{2})(\d{3})(\d{13})(\d{2})$|22|0|2|||2011-06-20|0|1|16|17|rs|RS||RSD|www.nbs.rs|National Bank of Serbia
SC|Seychelles|0000000000001497|SSCB11010000000000001497USD|4a!2n!2n!16n!3a!|^([A-Z]{4})!(\d{2})!(\d{2})!(\d{16})!([A-Z]{3})!$|27|SC18SSCB11010000000000001497USD|SC2!n4a!2n!2n!16n!3a!|^SC(\d{2})([A-Z]{4})(\d{2})(\d{2})(\d{16})([A-Z]{3})$|31|0|3|4|7|2016-06-11|0|1|||sc|SC||SCR|www.cbs.sc|Central Bank of Seychelles
SK|Slovakia|19-8742637541/1200|12000000198742637541|4!n6!n10!n|^(\d{4})(\d{6})(\d{10})$|20|SK3112000000198742637541|SK2!n4!n6!n10!n|^SK(\d{2})(\d{4})(\d{6})(\d{10})$|24|0|3|4|9|2011-06-20|1|1|||sk|SK||EUR|www.nbs.sk|National Bank of Slovakia
SI|Slovenia|2633 0001 2039 086|263300012039086|5!n8!n2!n|^(\d{5})(\d{8})(\d{2})$|15|SI56191000000123438|SI2!n5!n8!n2!n|^SI(\d{2})(\d{5})(\d{8})(\d{2})$|19|0|1|2|4|2012-09-09|1|1|13|14|si|SI||EUR|www.bsi.si|Bank of Slovenia
ES|Spain|2100 0418 45 0200051332|21000418450200051332|4!n4!n1!n1!n10!n|^(\d{4})(\d{4})(\d{1})(\d{1})(\d{10})$|20|ES9121000418450200051332|ES2!n4!n4!n1!n1!n10!n|^ES(\d{2})(\d{4})(\d{4})(\d{1})(\d{1})(\d{10})$|24|0|3|4|7|2013-09-05|1|1|8|9|es|ES||EUR|www.bde.es|Bank of Spain
SE|Sweden|1234 12 3456 1|5000 0000 0583 9825 7466|3!n16!n1!n|^(\d{3})(\d{16})(\d{1})$|20|SE4550000000058398257466|SE2!n3!n16!n1!n|^SE(\d{2})(\d{3})(\d{16})(\d{1})$|24|0|2|||2011-06-20|1|1|19|19|se|SE||SEK|www.riksbank.com|Bank of Sweden (Sveriges Riksbank)
CH|Switzerland|762 1162-3852.957|00762011623852957|5!n12!c|^(\d{5})([A-Za-z0-9]{12})$|17|CH9300762011623852957|CH2!n5!n12!c|^CH(\d{2})(\d{5})([A-Za-z0-9]{12})$|21|0|4|||2011-06-20|1|1|||ch|CH||CHF|www.snb.ch|Swiss National Bank
TL|Timor-Leste|008 00123456789101 57|0080012345678910157|3!n 14!n 2!n|^(\d{3}) (\d{14}) (\d{2})$|19|TL380080012345678910157|TL2!n3!n14!n2!n|^TL(\d{2})(\d{3})(\d{14})(\d{2})$|23|0|3|4|6|2016-01-21|0|1|17|18|tl|TL||USD|www.bancocentral.tl|Central Bank of Timor-Leste (Banco Central de Timor-Leste)
TN|Tunisia|10 006 0351835984788 31|10006035183598478831|2!n3!n13!n2!n|^(\d{2})(\d{3})(\d{13})(\d{2})$|20|TN5910006035183598478831|TN2!n2!n3!n13!n2!n|^TN(\d{2})(\d{2})(\d{3})(\d{13})(\d{2})$|24|0|1|2|4|2011-06-20|0|1|18|19|tn|TN||TND|www.bct.gov.tn|Central Bank of Tunisia
TR|Turkey|TR33 0006 1005 1978 6457 8413 26|0006100519786457841326|5!n1!n16!c|^(\d{5})(\d{1})([A-Za-z0-9]{16})$|22|TR330006100519786457841326|TR2!n5!n1!n16!c|^TR(\d{2})(\d{5})(\d{1})([A-Za-z0-9]{16})$|26|0|4|||2016-01-21|0|1|||tr|TR||TRY|www.tcmb.gov.tr|Central Bank of the Republic of Turkey
UA|Ukraine|3996220000026007233566001|3996220000026007233566001|6!n19!c|^[0-9]{6}[A-Za-z0-9]{19}$|25|UA213996220000026007233566001|UA2!n6!n19!c|^UA(\d{2})(\d{6})([A-Za-z0-9]{19})$|29|0|5|||2016-01-22|0|0|||ua|UA||UAH|www.bank.gov.ua|National Bank of Ukraine
AE|United Arab Emirates|1234567890123456|0331234567890123456|3!n16!n|^(\d{3})(\d{16})$|19|AE070331234567890123456|AE2!n3!n16!n|^AE(\d{2})(\d{3})(\d{16})$|23|0|2|||2011-06-20|0|1|||ae|AE||AED|www.centralbank.ae|Central Bank of the United Arab Emirates
GB|United Kingdom|60-16-13 31926819|NWBK60161331926819|4!a6!n8!n|^([A-Z]{4})(\d{6})(\d{8})$|18|GB29NWBK60161331926819|GB2!n4!a6!n8!n|^GB(\d{2})([A-Z]{4})(\d{6})(\d{8})$|22|0|3|4|9|2011-06-20|1|1|||uk|GB||GBP|www.bankofengland.co.uk|Bank of England